KUIPER-00133            
1 65764U 25217C   25311.00003472 -.01239662  00000+0 -66645-1 0  9991
2 65764  51.8760 238.9443 0009414 273.2242 103.4072 15.17435751  5876
KUIPER-00139            
1 65765U 25217D   25311.00003472 -.00815661  00000+0 -32004-1 0  9992
2 65765  51.8696 237.8702 0006870 249.4816 276.7113 15.27777135  5254
KUIPER-00142            
1 65766U 25217E   25310.78288299  .00058072  00000+0  15623-2 0  9991
2 65766  51.8702 238.2546 0002501 154.2129 205.8983 15.37312567  6514
KUIPER-00145            
1 65767U 25217F   25310.78883343  .00055185  00000+0  15054-2 0  9993
2 65767  51.8713 238.2950 0002305 211.9727 148.1119 15.36905585  6510
KUIPER-00147            
1 65768U 25217G   25310.09796923  .00057317  00000+0  16147-2 0  9998
2 65768  51.8661 241.8920 0005842 241.4820 118.5578 15.35874398  6405
KUIPER-00148            
1 65769U 25217H   25310.89868083  .00040299  00000+0  11628-2 0  9994
2 65769  51.8605 238.2358 0009793 260.6359  99.3520 15.35252066  6526
KUIPER-00150            
1 65770U 25217J   25311.00003472 -.00608444  00000+0 -28954-1 0  9996
2 65770  51.8691 238.3638 0008090 258.6525 343.5940 15.21024393  4338
KUIPER-00151            
1 65771U 25217K   25310.53294684  .00049276  00000+0  13453-2 0  9990
2 65771  51.8717 239.5750 0004363 224.4615 135.6022 15.36923817  6479
